CCSDS_OMM_VERS = 2.0
CREATION_DATE  = 
ORIGINATOR     = 

OBJECT_NAME    = 2025-313AL
OBJECT_ID      = 2025-313AL
CENTER_NAME    = EARTH
REF_FRAME      = TEME
TIME_SYSTEM    = UTC
MEAN_ELEMENT_THEORY = SGP/SGP4

EPOCH          = 2026-01-23T22:14:01.509504
MEAN_MOTION    = 15.21207269
ECCENTRICITY   = .00120902
INCLINATION    = 97.4084
RA_OF_ASC_NODE = 100.9582
ARG_OF_PERICENTER = 140.7018
MEAN_ANOMALY   = 219.5098

EPHEMERIS_TYPE = 0
CLASSIFICATION_TYPE = U
NORAD_CAT_ID   = 67282
ELEMENT_SET_NO = 999
REV_AT_EPOCH   = 401
BSTAR          = .4655323E-3
MEAN_MOTION_DOT = .10342E-3
MEAN_MOTION_DDOT = 0

CCSDS_OMM_VERS = 2.0
CREATION_DATE  = 
ORIGINATOR     = 

OBJECT_NAME    = HORS 5
OBJECT_ID      = 2025-313AM
CENTER_NAME    = EARTH
REF_FRAME      = TEME
TIME_SYSTEM    = UTC
MEAN_ELEMENT_THEORY = SGP/SGP4

EPOCH          = 2026-01-23T22:11:28.312800
MEAN_MOTION    = 15.21418947
ECCENTRICITY   = .00118935
INCLINATION    = 97.4091
RA_OF_ASC_NODE = 100.9635
ARG_OF_PERICENTER = 140.5197
MEAN_ANOMALY   = 219.6907

EPHEMERIS_TYPE = 0
CLASSIFICATION_TYPE = U
NORAD_CAT_ID   = 67283
ELEMENT_SET_NO = 999
REV_AT_EPOCH   = 401
BSTAR          = .7079277E-3
MEAN_MOTION_DOT = .15872E-3
MEAN_MOTION_DDOT = 0

CCSDS_OMM_VERS = 2.0
CREATION_DATE  = 
ORIGINATOR     = 

OBJECT_NAME    = LOBACHEVSKY (RS83S)
OBJECT_ID      = 2025-313AN
CENTER_NAME    = EARTH
REF_FRAME      = TEME
TIME_SYSTEM    = UTC
MEAN_ELEMENT_THEORY = SGP/SGP4

EPOCH          = 2026-01-23T22:14:48.379776
MEAN_MOTION    = 15.21114692
ECCENTRICITY   = .001196
INCLINATION    = 97.4076
RA_OF_ASC_NODE = 100.9547
ARG_OF_PERICENTER = 140.4831
MEAN_ANOMALY   = 219.7279

EPHEMERIS_TYPE = 0
CLASSIFICATION_TYPE = U
NORAD_CAT_ID   = 67284
ELEMENT_SET_NO = 999
REV_AT_EPOCH   = 401
BSTAR          = .47087422E-3
MEAN_MOTION_DOT = .10433E-3
MEAN_MOTION_DDOT = 0

CCSDS_OMM_VERS = 2.0
CREATION_DATE  = 
ORIGINATOR     = 

OBJECT_NAME    = NASBSAT-2
OBJECT_ID      = 2025-313AP
CENTER_NAME    = EARTH
REF_FRAME      = TEME
TIME_SYSTEM    = UTC
MEAN_ELEMENT_THEORY = SGP/SGP4

EPOCH          = 2026-01-23T22:09:51.742656
MEAN_MOTION    = 15.21464478
ECCENTRICITY   = .00115282
INCLINATION    = 97.4068
RA_OF_ASC_NODE = 100.9563
ARG_OF_PERICENTER = 141.9400
MEAN_ANOMALY   = 218.2653

EPHEMERIS_TYPE = 0
CLASSIFICATION_TYPE = U
NORAD_CAT_ID   = 67285
ELEMENT_SET_NO = 999
REV_AT_EPOCH   = 401
BSTAR          = .59344083E-3
MEAN_MOTION_DOT = .13306E-3
MEAN_MOTION_DDOT = 0

CCSDS_OMM_VERS = 2.0
CREATION_DATE  = 
ORIGINATOR     = 

OBJECT_NAME    = 2025-313AQ
OBJECT_ID      = 2025-313AQ
CENTER_NAME    = EARTH
REF_FRAME      = TEME
TIME_SYSTEM    = UTC
MEAN_ELEMENT_THEORY = SGP/SGP4

EPOCH          = 2026-01-23T22:09:04.055040
MEAN_MOTION    = 15.21472997
ECCENTRICITY   = .00111908
INCLINATION    = 97.4090
RA_OF_ASC_NODE = 100.9730
ARG_OF_PERICENTER = 137.2020
MEAN_ANOMALY   = 223.0089

EPHEMERIS_TYPE = 0
CLASSIFICATION_TYPE = U
NORAD_CAT_ID   = 67286
ELEMENT_SET_NO = 999
REV_AT_EPOCH   = 401
BSTAR          = .68375738E-3
MEAN_MOTION_DOT = .15348E-3
MEAN_MOTION_DDOT = 0

CCSDS_OMM_VERS = 2.0
CREATION_DATE  = 
ORIGINATOR     = 

OBJECT_NAME    = LUCA (RS90S)
OBJECT_ID      = 2025-313AR
CENTER_NAME    = EARTH
REF_FRAME      = TEME
TIME_SYSTEM    = UTC
MEAN_ELEMENT_THEORY = SGP/SGP4

EPOCH          = 2026-01-23T22:07:06.877632
MEAN_MOTION    = 15.21614390
ECCENTRICITY   = .00110907
INCLINATION    = 97.4089
RA_OF_ASC_NODE = 100.9752
ARG_OF_PERICENTER = 138.8980
MEAN_ANOMALY   = 221.3093

EPHEMERIS_TYPE = 0
CLASSIFICATION_TYPE = U
NORAD_CAT_ID   = 67287
ELEMENT_SET_NO = 999
REV_AT_EPOCH   = 401
BSTAR          = .73751236E-3
MEAN_MOTION_DOT = .16631E-3
MEAN_MOTION_DDOT = 0

CCSDS_OMM_VERS = 2.0
CREATION_DATE  = 
ORIGINATOR     = 

OBJECT_NAME    = 2025-313AS
OBJECT_ID      = 2025-313AS
CENTER_NAME    = EARTH
REF_FRAME      = TEME
TIME_SYSTEM    = UTC
MEAN_ELEMENT_THEORY = SGP/SGP4

EPOCH          = 2026-01-23T22:09:48.347136
MEAN_MOTION    = 15.21376150
ECCENTRICITY   = .0012979
INCLINATION    = 97.4078
RA_OF_ASC_NODE = 100.9677
ARG_OF_PERICENTER = 131.8832
MEAN_ANOMALY   = 228.3513

EPHEMERIS_TYPE = 0
CLASSIFICATION_TYPE = U
NORAD_CAT_ID   = 67288
ELEMENT_SET_NO = 999
REV_AT_EPOCH   = 401
BSTAR          = .45332938E-3
MEAN_MOTION_DOT = .10122E-3
MEAN_MOTION_DDOT = 0

CCSDS_OMM_VERS = 2.0
CREATION_DATE  = 
ORIGINATOR     = 

OBJECT_NAME    = NASBSAT-1
OBJECT_ID      = 2025-313AT
CENTER_NAME    = EARTH
REF_FRAME      = TEME
TIME_SYSTEM    = UTC
MEAN_ELEMENT_THEORY = SGP/SGP4

EPOCH          = 2026-01-23T23:38:39.385248
MEAN_MOTION    = 15.21872672
ECCENTRICITY   = .00108932
INCLINATION    = 97.4089
RA_OF_ASC_NODE = 101.0434
ARG_OF_PERICENTER = 139.0728
MEAN_ANOMALY   = 221.1328

EPHEMERIS_TYPE = 0
CLASSIFICATION_TYPE = U
NORAD_CAT_ID   = 67289
ELEMENT_SET_NO = 999
REV_AT_EPOCH   = 402
BSTAR          = .10545799E-2
MEAN_MOTION_DOT = .24014E-3
MEAN_MOTION_DDOT = 0

CCSDS_OMM_VERS = 2.0
CREATION_DATE  = 
ORIGINATOR     = 

OBJECT_NAME    = SAKHACUBE-CHOLBON (RS18S)
OBJECT_ID      = 2025-313AU
CENTER_NAME    = EARTH
REF_FRAME      = TEME
TIME_SYSTEM    = UTC
MEAN_ELEMENT_THEORY = SGP/SGP4

EPOCH          = 2026-01-23T22:05:02.209344
MEAN_MOTION    = 15.21722355
ECCENTRICITY   = .00107935
INCLINATION    = 97.4088
RA_OF_ASC_NODE = 100.9771
ARG_OF_PERICENTER = 138.3868
MEAN_ANOMALY   = 221.8192

EPHEMERIS_TYPE = 0
CLASSIFICATION_TYPE = U
NORAD_CAT_ID   = 67290
ELEMENT_SET_NO = 999
REV_AT_EPOCH   = 401
BSTAR          = .79062305E-3
MEAN_MOTION_DOT = .17892E-3
MEAN_MOTION_DDOT = 0

CCSDS_OMM_VERS = 2.0
CREATION_DATE  = 
ORIGINATOR     = 

OBJECT_NAME    = QMR-KWT-2 (RS95S)
OBJECT_ID      = 2025-313AV
CENTER_NAME    = EARTH
REF_FRAME      = TEME
TIME_SYSTEM    = UTC
MEAN_ELEMENT_THEORY = SGP/SGP4

EPOCH          = 2026-01-23T22:03:34.994592
MEAN_MOTION    = 15.21874719
ECCENTRICITY   = .00105871
INCLINATION    = 97.4088
RA_OF_ASC_NODE = 100.9785
ARG_OF_PERICENTER = 138.3983
MEAN_ANOMALY   = 221.8061

EPHEMERIS_TYPE = 0
CLASSIFICATION_TYPE = U
NORAD_CAT_ID   = 67291
ELEMENT_SET_NO = 999
REV_AT_EPOCH   = 401
BSTAR          = .1065534E-2
MEAN_MOTION_DOT = .24265E-3
MEAN_MOTION_DDOT = 0

CCSDS_OMM_VERS = 2.0
CREATION_DATE  = 
ORIGINATOR     = 

OBJECT_NAME    = SITRO-AIS-64
OBJECT_ID      = 2025-313AW
CENTER_NAME    = EARTH
REF_FRAME      = TEME
TIME_SYSTEM    = UTC
MEAN_ELEMENT_THEORY = SGP/SGP4

EPOCH          = 2026-01-23T23:37:22.457280
MEAN_MOTION    = 15.21823356
ECCENTRICITY   = .00104713
INCLINATION    = 97.4091
RA_OF_ASC_NODE = 101.0459
ARG_OF_PERICENTER = 137.9619
MEAN_ANOMALY   = 222.2422

EPHEMERIS_TYPE = 0
CLASSIFICATION_TYPE = U
NORAD_CAT_ID   = 67292
ELEMENT_SET_NO = 999
REV_AT_EPOCH   = 402
BSTAR          = .78615331E-3
MEAN_MOTION_DOT = .17842E-3
MEAN_MOTION_DDOT = 0

CCSDS_OMM_VERS = 2.0
CREATION_DATE  = 
ORIGINATOR     = 

OBJECT_NAME    = SCORPION (RS89S)
OBJECT_ID      = 2025-313AX
CENTER_NAME    = EARTH
REF_FRAME      = TEME
TIME_SYSTEM    = UTC
MEAN_ELEMENT_THEORY = SGP/SGP4

EPOCH          = 2026-01-23T22:06:45.573984
MEAN_MOTION    = 15.21448771
ECCENTRICITY   = .00124619
INCLINATION    = 97.4089
RA_OF_ASC_NODE = 100.9735
ARG_OF_PERICENTER = 129.8370
MEAN_ANOMALY   = 230.3964

EPHEMERIS_TYPE = 0
CLASSIFICATION_TYPE = U
NORAD_CAT_ID   = 67293
ELEMENT_SET_NO = 999
REV_AT_EPOCH   = 401
BSTAR          = .32416439E-3
MEAN_MOTION_DOT = .723E-4
MEAN_MOTION_DDOT = 0

