2025-313AL              
1 67282U 25313AL  26023.92640636  .00010342  00000+0  46553-3 0  9993
2 67282  97.4084 100.9582 0012090 140.7018 219.5098 15.21207269  4011
HORS 5                  
1 67283U 25313AM  26023.92463325  .00015872  00000+0  70793-3 0  9998
2 67283  97.4091 100.9635 0011893 140.5197 219.6907 15.21418947  4012
LOBACHEVSKY (RS83S)     
1 67284U 25313AN  26023.92694884  .00010433  00000+0  47087-3 0  9993
2 67284  97.4076 100.9547 0011960 140.4831 219.7279 15.21114692  4010
NASBSAT-2               
1 67285U 25313AP  26023.92351554  .00013306  00000+0  59344-3 0  9999
2 67285  97.4068 100.9563 0011528 141.9400 218.2653 15.21464478  4018
2025-313AQ              
1 67286U 25313AQ  26023.92296360  .00015348  00000+0  68376-3 0  9996
2 67286  97.4090 100.9730 0011190 137.2020 223.0089 15.21472997  4013
LUCA (RS90S)            
1 67287U 25313AR  26023.92160738  .00016631  00000+0  73751-3 0  9995
2 67287  97.4089 100.9752 0011090 138.8980 221.3093 15.21614390  4018
2025-313AS              
1 67288U 25313AS  26023.92347624  .00010122  00000+0  45333-3 0  9991
2 67288  97.4078 100.9677 0012979 131.8832 228.3513 15.21376150  4012
NASBSAT-1               
1 67289U 25313AT  26023.98517807  .00024014  00000+0  10546-2 0  9992
2 67289  97.4089 101.0434 0010893 139.0728 221.1328 15.21872672  4021
SAKHACUBE-CHOLBON (RS1*)
1 67290U 25313AU  26023.92016446  .00017892  00000+0  79062-3 0  9996
2 67290  97.4088 100.9771 0010793 138.3868 221.8192 15.21722355  4017
QMR-KWT-2 (RS95S)       
1 67291U 25313AV  26023.91915503  .00024265  00000+0  10655-2 0  9992
2 67291  97.4088 100.9785 0010587 138.3983 221.8061 15.21874719  4019
SITRO-AIS-64            
1 67292U 25313AW  26023.98428770  .00017842  00000+0  78615-3 0  9999
2 67292  97.4091 101.0459 0010471 137.9619 222.2422 15.21823356  4025
SCORPION (RS89S)        
1 67293U 25313AX  26023.92136081  .00007230  00000+0  32416-3 0  9994
2 67293  97.4089 100.9735 0012461 129.8370 230.3964 15.21448771  4017
